Origin Time       2011/03/11 14:46:00
Lat.              38.103
Long.             142.860
Depth. (km)       24
Mag.              9.0
Station Code      MYG004
Station Lat.      38.7292
Station Long.     141.0217
Station Height(m) 40
Record Time       2011/03/11 14:46:51
Sampling Freq(Hz) 100Hz
Duration Time(s)  300
Dir.              E-W
Scale Factor      3920(gal)/6182761
Max. Acc. (gal)   1268.488
Last Correction   2011/03/11 14:46:36
Memo.             
[...]
  120471    99875    34341   -27717   -70380   -86761   -98908  -122998 
 -102551   -19818    38292    43448    64187   120521   163694   165790 
  155671   160917   148865    96521    54443    52682    42223     4803 
   -9282    -2256   -13850   -13459    15982    13518   -27291   -42935 
  -50473  -105100  -160759  -169323  -170527  -181731  -158708   -77602 
    7199    41339    80180   146650   153391   111108    85902    47318 
   -4352   -37464   -75901  -104649   -86307   -44630      155    53117 
   91280    79947    20701   -38139   -71227  -122209  -187764  -196180 
 -161730  -142031  -116524   -71461   -25544    34920    93918   103385 
   82436    73502    53501    -9409   -82087  -125168  -163633  -207662 
 -209284  -165488  -100214     6901   134056   209993   222996   189347 
   93502   -37900  -126506  -168901  -231640  -299781  -311756  -293381 
 -278970  -236782  -159299   -84386   -25618    38137   102848   123148 
   83882    40364    48545    78776    80052    85619   125743   150947 
  138220   116752    83590    22574   -45940   -97514  -142458  -196224 
 -227083  -210420  -192618  -195357  -176064  -143395  -146686  -169726 
 -161292  -110097   -52879   -26949    -6837    30698    29270   -35877 
 -107777  -166932  -233864  -271790  -224440  -105708    19548   106711 
  174423   243083   265347   232062   204757   178140   105896    10008 
  -68506  -135017  -190627  -201252  -169801  -153453  -181040  -221811 
 -235171  -217885  -201440  -202542  -198329  -174347  -138422   -71952 
   23457    75399    66463    62157    57402    16415   -19728   -30906 
  -52285   -95224  -161730  -239759  -277002  -250010  -184358  -109005 
  -39292    33989   100385   123901   123107   104138    28292   -40415 
  -35636   -34038   -52258   -20202    18757    17227    15673    -2031 
  -36140   -11285    31908    25123    46351   108464   125674   126547 
  141827   110910    39766   -15557   -59527  -106610  -118080   -68478 
   -3445    35741    62348    88534    88153    28017   -75575  -162279 
 -211759  -256693  -290946  -273699  -216429  -157625  -100192   -35685 
   24977    85737   159809   204541   192226   177525   163055   101119 
   51807    73007    82143    35643    -5265   -41755  -113381  -185192 
 -194986  -119017    12709   118331   158133   185849   202964   142508 
   32052   -49719   -89041  -110070  -132181  -143110  -119514   -77429 
  -44847   -10303    43449    80156    81155   100927   143375   155531 
  151458   147787   113000    76976    75120    29675  -103737  -230269 
 -283431  -304250  -317154  -274570  -154950   -15301   104054   217439 
  298270   287185   214606   140479    39157   -80951  -130123   -88396 
  -10195    76560   160032   219175   246085   233397   183426   130716 
   76274    -5558   -71599   -93973  -145973  -255689  -363665  -431722 
 -432980  -361557  -273857  -214880  -173920  -117920   -32263    51895 
   89166    65942    -5484  -100870  -176890  -208996  -208800  -163775 
  -81262   -34402   -31932     3242    65804    62665    18539    38463 
   40155   -78463  -157140  -118612  -137990  -196086  -129385   -28530 
  -15633   -10682    27692    28399   -17132   -30778    21519    77015 
   88504    83357    90620   114640   141701   143551   102896    13664 
  -95294  -172548  -210881  -196038  -108938   -16149    26812    33580 
    2249   -52592  -103624  -158070  -194945  -211492  -245229  -246555 
 -175648  -118873  -106857   -72718   -21944     5673    44507   117650 
  175980   195974   203444   179305   109590    66492    54633    -5203 
  -56456   -23427    -1402   -20611    21569    90685    81580    38907 
   19775   -13731   -41223    -8383    47553    95757   151220   188696 
  190407   185823   179236   134216    40147   -52850   -86475   -87714 
 -132530  -179418  -132218   -63581  -103930  -201209  -242326  -244774 
 -257090  -265008  -234669  -142463   -17169   104906   242475   359870 
  391273   378572   328492   180592    14331   -94343  -230980  -407230 
 -502679  -484820  -427209  -357135  -256872  -148178   -59965     -710 
   37066   115246   250043   302608   196275    75773    37746    -9222 
  -70346   -23474    72626    64098     4973    -9277    -8182   -29186 
  -94639  -192511  -273827  -326189  -348112  -334311  -284757  -175210 
  -28127    86195   164984   207597   165422    79672    59385    84007 
   26286  -122914  -262331  -354686  -423553  -483327  -498211  -393374 
 -178026    50623   254088   450175   604365   668004   646550   550628 
  387156   188088    -5888  -157446  -272274  -387024  -468635  -434588 
 -283024  -114777    -8131    64685   152335   249327   310921   275888 
  157302    49902   -29810  -139565  -272784  -370495  -394149  -353706 
 -302758  -253798  -164513   -58095     8235    24169   -27966  -117233 
 -167943  -211341  -292180  -347135  -311196  -193564   -65669    14314 
   85128   181725   240553   251514   290813   313647   200261    17216 
  -55012   -40172  -102681  -223816  -273059  -210730   -65926    53839 
  104669   208321   328018   285059   150256    94844    78891     -533 
 -131272  -271848  -419122  -521139  -488234  -355025  -245554  -179720 
  -90634    38361   162364   223309   197050   122623    59145    30472 
   11219   -16367   -17818   -10305   -73070  -191284  -267400  -262300 
 -202977  -105078    -2314    42970    46609    71911   136206   200787 
  195558   145469   130739   111996    55552    25792    34750    46710 
   65465    99761   129569   137145   132260   126974   129964   136478 
   97893     6442   -70116  -129857  -226443  -312803  -298903  -213288 
 -155884  -151534  -158380  -154205  -113883   -24064    19242   -66681 
 -173555  -193584  -233598  -370607  -449184  -347013  -146213    19574 
  120018   238445   391973   488211   512111   492699   394125   219753 
   71852    22878   -18803  -154650  -283743  -288719  -227093  -189987 
 -156033   -68908      272   -31385   -78684   -73870   -68598   -56609 
   -1843    47993    47974    20245    18449    70826   126725   125366 
   88453    43395   -25205   -87102   -93726   -68497   -39262     8686 
   44440     4293   -78817  -111018  -110714  -157229  -212781  -213520 
 -198118  -207523  -210279  -148456   -20236    99197   174251   265803 
  377521   369014   228061   170238   190032    43446  -217684  -364697 
 -434432  -530227  -560036  -455508  -308915  -164100    23109   218934 
  361854   405766   303757   143567    35938   -90745  -300413  -494131 
 -581944  -582085  -510970  -359053  -195665  -116757   -82878     2856 
  140198   293265   386163   324642   204720   193629   274411   347420 
  350775   269367   156431    52197   -76144  -246501  -388652  -423073 
 -364031  -257833  -132890   -33643    29158    77636   103909    90718 
   41251     -234    45625   183087   270084   201714   114584   202741 
  364354   320493   114113    -7301   -79622  -193666  -281586  -371201 
 -479848  -478042  -318521  -126924   -39474   -31075    22495    95879 
   74877     7167   -17204   -47089  -129160  -203964  -238460  -271144 
 -282036  -219324  -119434   -44652    -5543    36719   145368   314658 
  452685   503570   492302   426079   263369    40906  -123873  -218261 
 -319246  -426722  -498783  -493475  -352546  -124481    51802   118109 
  117397   108942   120205   145882   101593   -72986  -247269  -303018 
 -289339  -281354  -325821  -426196  -488184  -398769  -240490  -177508 
 -139481   -46657    20652    88927   196537   262616   259428   202818 
  126816    73286   -36459  -235243  -358431  -344976  -306636  -245895 
  -83279   118125   218771   245843   300671   357206   388799   413931 
  397973   333681   283709   260611   202889    87686   -56938  -195765 
 -288625  -350739  -407497  -403843  -346885  -331867  -336282  -277430 
 -187672  -128638   -86648   -14381    90899   175198   213695   231198 
  241042   226917   172823   115805    88988    43031   -16845    18462 
  146484   231098   208225   132173    84831    75542    27215   -71229 
 -129152  -110860   -72646   -63641   -50610    27774   144794   220929 
  231789   210853   172019    98011    14971   -39026   -90965  -161975 
 -201908  -194274  -193440  -187772  -138911  -107936  -132316  -144611 
 -103337   -36385    28914    87956   154020   221897   248136   216312 
  148052    83064    66296    66937    32289    34586   137797   219398 
  203090   203631   222135   149548    28335   -74297  -142752  -133129 
  -88976  -101111  -141661  -153047  -144877  -149115  -196499  -268137 
 -307513  -316824  -308197  -269143  -221483  -160353   -71401     3076 
   74583   169266   200366   111789    -8850   -77063  -138000  -281653 
 -481618  -610317  -616189  -557710  -465611  -313686  -118862    46481 
  146744   189585   152134    16736  -152626  -287661  -402841  -501284 
 -520955  -448071  -336309  -212818   -71316    72520   183787   263670 
  349347   462940   572248   627420   668064   733177   684727   397792 
   27908  -218562  -403210  -616296  -760907  -773337  -655434  -441358 
 -275068  -206931  -123794    -2604    98992   199381   293081   316609 
  299279   280059   190168    42875   -42686   -56047   -36573    17118 
   42069   -21813  -103233  -122373  -121045  -156269  -214162  -288186 
 -387315  -472511  -468208  -326977  -104960    71785   168631   243173 
  266500   155189   -38095  -187977  -296500  -442458  -591145  -652887 
 -636407  -564568  -420061  -242618  -107315   -12978    87025   138239 
   78571    -5315   -73474  -192534  -331353  -427681  -498839  -518571 
 -379538   -79746   186195   285645   286367   227618   137516   123919 
  152787   121939    82510    78535    50801      274    -3042    25089 
   63345   175020   314127   370440   373400   347573   220641     4207 
 -173615  -245775  -270512  -288412  -270573  -209776  -122587   -36167 
   25031    99181   225457   348085   382141   326757   221246    60693 
 -128802  -255262  -262730  -187201  -118032   -97393  -103342  -134494 
 -204894  -288725  -342612  -357140  -336527  -257793  -115878    52039 
  219977   394911   579133   704496   634335   335606    20071  -119389 
 -219438  -419979  -566704  -549897  -415565  -219621   -66815    39313 
  186009   302909   324962   317545   265681   147173    68151    41235 
  -28944  -117073  -154535  -141417   -83969   -22771   -27753   -80496 
  -92396   -42716    -5355   -53024  -160287  -241534  -280965  -275673 
 -166066     3067   106851   168791   285824   433445   518986   515956 
  492662   482166   407334   261324   151496   106837    63218   -22786 
 -146166  -268477  -332963  -300373  -210877  -151518  -121297   -28773 
  139780   285015   353222   382692   399851   370014   270429   142197 
    4977  -161328  -319848  -421397  -502960  -617213  -741684  -815390 
 -818006  -760921  -632655  -441488  -254987  -147034  -104630    -7482 
  195199   434497   682221   843239   706686   332949   103828   162162 
  202539    33578  -121813   -99565   -19641    38031   126852   265884 
  433008   563025   572555   536399   523336   413769   212883   113727 
  200728   337572   311576   161238   103145   102852    18415   -88287 
 -172485  -308577  -492017  -681768  -840571  -826703  -573228  -268729 
  -89550     6685    89667   165203   256446   328928   300417   152047 
  -83376  -275247  -305381  -261651  -229352  -164747   -56660    81396 
  218032   287050   298412   327315   395338   405051   253835    30100 
 -141194  -304374  -469613  -549301  -556807  -513933  -372676  -199750 
  -76091    72396   241530   289858   202229    66944   -65442  -134748 
 -129606  -134233  -163570  -178003  -229766  -372044  -543702  -634946 
 -606155  -510061  -409511  -314286  -175268    22193   217474   384356 
  460612   337004   116335   -50704  -263425  -542345  -648540  -468941 
 -159590    80050   190590   217559   166223    78426    73243   110439 
   32102  -140844  -229855  -159577   -48797    -6943     2076      662 
  -61975  -183135  -276340  -258306  -174289  -123783   -92155   -62185 
  -73398  -108767  -140466  -132585   -46880    22310     -160   -35070 
  -61403  -114788  -162833  -204885  -277781  -369217  -448866  -516429 
 -560967  -505772  -306621   -73582    60883   119760   176220   205468 
  157853    67020    21685    32841    28235     5870     8068     8684 
   -1295    31021    81516    83971   109486   254437   466597   644401 
  695975   509117   136109  -158102  -286177  -424593  -636881  -852169 
-1008342  -949247  -614930  -232622    54240   329769   617685   785510 
  705039   505520   404473   308480    87287   -93451  -126054  -142922 
 -170161  -120308   -67416  -112130  -213066  -300029  -316459  -221849 
  -73655    35775   100941   145096   163470    81593  -176523  -440207 
 -519851  -542043  -584461  -557948  -547456  -600591  -555724  -383263 
 -186943    -1891   131918   199831   282351   393506   481133   575657 
  693493   738540   618956   350141    35167  -251013  -517302  -700435 
 -663660  -468580  -326422  -257916  -101557   187647   507126   799178 
  970027   817736   463614   333764   413590   391503   279981   174503 
   79785    36963    47336   112266   161099    32221  -231776  -348824 
 -201747  -175192  -498601  -744798  -837598  -988849  -833796  -390139 
 -151952    77063   614190  1165171  1252921   750768   239519   392612 
  912640   892107   177559  -373510  -400897  -564295 -1080744 -1569026 
-1798063 -1424126  -345503   708093   964183   669830   541927   649769 
  811598  1005573  1160592  1178682   707593  -250490  -853857  -837694 
 -732296  -611426  -539105  -851154 -1364280 -1836562 -2027353 -1284978 
   48047   766376   959910  1275813  1421944  1104441   651124   448417 
  419165   352823   270398   -57053  -671883  -934745  -524289    54766 
  308188   418026   551899   417993   222164   426123   768380   939319 
  898450   637832   477564   460063   287724   107777    58105    36012 
   43293   -18346  -244148  -511607  -672879  -708592  -740891  -859258 
 -978311  -999908  -943521  -848872  -727320  -596527  -436594  -217277 
    2031   148187   222628   259842   327571   473206   645529   761049 
  733430   493311   137297  -106780  -229324  -456436  -819468 -1194776 
-1545953 -1723614 -1557469 -1163556  -766123  -433683  -106493   273753 
  683335  1015653  1198712  1284758  1350641  1361517  1209438   885882 
  508853   185326   -78243  -318137  -488738  -559894  -609859  -609299 
 -459294  -235750   -53200    32160   -39951  -198736  -282146  -241518 
 -121075     4778   117184   301997   548765   742678   837968   738258 
  375770    41601     3151    -7411  -229008  -483209  -690265  -865523 
 -866848  -618069  -227011    85065   225453   307115   335587   241980 
   98081   -11967   -86704  -168899  -289450  -374650  -319155  -151642 
    5023   106060   205082   306357   346505   324658   302968   307209 
  297466   216686    59520  -118859  -265927  -382919  -490962  -591954 
 -711677  -885091 -1055612 -1089365  -905190  -559147  -198707    88570 
  307707   451167   547774   680691   806175   810831   728104   643629 
  525859   347800   204983   139733    16495  -306188  -756887 -1028701 
 -885040  -483749  -135963    68755   179302   286594   484336   741069 
  944579   928852   567606    60371  -248008  -313835  -315797  -461893 
 -901818 -1461044 -1842178 -1951481 -1619963  -882182  -317669  -154328 
   18630   355737   626506   732788   715018   602236   478547   355723 
  127124  -176078  -422844  -547296  -470518  -193108    80993   250357 
  405637   484853   373263   192428    81982     4743   -64530   -67435 
   -8972    49559   104708   188587   283649   330320   291266   179160 
   69469    32655    15839   -48649  -125401  -200113  -286020  -355787 
 -386708  -341076  -199295   -41837    35722    53147   108964   232108 
  401986   608068   725389   612606   357850   121839   -63403  -185851 
 -244064  -309536  -381793  -378209  -290226  -136219    59210   201902 
  229323   154888    39936   -17985     1893    29560    17026   -34820 
  -87449   -92742   -56937   -24762    -6962    19817    89308   219769 
  361282   437193   427747   359980   273687   173432    14880  -199598 
 -407972  -574764  -700140  -788370  -824579  -775047  -608081  -344630 
  -84217   151008   447595   773060   995073  1046041   930195   725715 
  512789   309049   141871    38359   -32010  -126242  -250593  -343978 
 -379337  -378956  -332678  -243092  -181426  -185695  -186365  -141447 
  -97683   -51314    20393    77137   118894   187005   280897   370926 
  400265   324420   212647   157399   120492    56507     1144   -66052 
 -190212  -333362  -452127  -542279  -596360  -591242  -494009  -303908 
  -71434   160790   365675   490715   498557   388665   183303   -35928 
 -214932  -411559  -618208  -713217  -663952  -509161  -260280     4138 
  192295   338068   467759   515155   486515   459523   415555   287551 
   92917  -107064  -281790  -420556  -480827  -395643  -197828   -27099 
   77800   208625   364025   424618   335220   151652   -22958  -128635 
 -214328  -333085  -445290  -504992  -511833  -471607  -406819  -349694 
 -278230  -146622    26158   175781   241025   178671    29526   -85293 
 -118074  -119620   -95452   -29522    25612    31270     -728   -43347 
  -48991   -22513   -29972   -53324    -9330    91938   186417   269046 
  346166   410701   478018   520796   444801   223938     2153   -95511 
 -178193  -349522  -523453  -637178  -672636  -611899  -507575  -380966 
 -207090   -11260   161900   262759   232451    76174  -107478  -243745 
 -363671  -481920  -530459  -469613  -322454  -146716    -2341   123467 
  250198   323267   341526   367856   388387   372237   329025   220296 
   46788   -69811   -98694  -130135  -155207  -152607  -183167  -215288 
 -156740   -16635   117779   210999   294026   338819   321827   306681 
  286619   200162    90715    35277    20771    -9936   -51758   -58568 
  -46536   -60326   -88810  -101274   -93107   -71593   -31776    28378 
   82055   111465   127239   139174   147018   130213    80315    40442 
   35636    43930    58858    68305    43450    -2091   -49339  -115051 
 -189039  -210457  -139526   -22457    67973   127624   179243   205246 
  175222    89550    -7958   -77867  -135401  -186228  -177980   -88320 
    8915    33320    27501    74117   140005   176392   194844   165793 
   57819   -92343  -231296  -336798  -437602  -554132  -639177  -654314 
 -621974  -569762  -499970  -401983  -270483  -131972   -29403    28014 
   60780    81061    88248    83131    82375   104215   135684   150457 
  138166   105160    70700    40799   -11827  -104492  -181619  -170282 
 -115776  -120428  -180773  -250111  -318528  -348724  -310233  -231595 
 -147154   -67247    32693   162151   255769   284445   299662   292841 
  204946    74882   -25751  -158560  -368512  -541841  -584620  -497003 
 -348630  -216884   -77674    76702   208454   333219   443640   518432 
  573058   571910   438441   211681    16573  -147426  -329244  -449841 
 -463695  -408529  -259850   -46844   148010   322008   439143   480737 
  502256   480812   396485   295632   173764    16102  -122802  -187600 
 -211757  -256554  -304620  -312503  -278143  -231668  -221166  -233292 
 -210668  -174916  -147857   -82504    18128   112062   191490   220156 
  150158    37259   -34806  -119055  -267393  -377789  -401816  -402234 
 -371421  -271938  -135936    -5042   142742   313371   432396   483651 
