Origin Time       2011/03/11 14:46:00
Lat.              38.103
Long.             142.860
Depth. (km)       24
Mag.              9.0
Station Code      MYG004
Station Lat.      38.7292
Station Long.     141.0217
Station Height(m) 40
Record Time       2011/03/11 14:46:51
Sampling Freq(Hz) 100Hz
Duration Time(s)  300
Dir.              U-D
Scale Factor      3920(gal)/6182761
Max. Acc. (gal)   1879.929
Last Correction   2011/03/11 14:46:36
Memo.             
[...]
  -57814    88175    99167    32681   118870   249932   167473   -11817 
    5261   112659    84117    77233   190598   194561   114911   132039 
   54906  -145870  -143702   -37846   -65953   -10779   140849   106579 
   -2576    -4666   -37905  -115393   -80034    19377    48767    42481 
   68776   110522   154978   164862   114980   132372   236688   222566 
   97624    67222   101545    32381   -90327   -74300    28525    -1024 
 -110814  -100727     3208    33627   -33643   -72431   -51336   -18443 
   39651    65357   -16201   -82565    -9494    63472   -17011  -100229 
  -46109   -21572  -100666   -75078    94056   148967    33931    15600 
  103140    46190   -77436   -98519   -94888   -60728     -754   -37349 
  -71988   -12540     3629   -37908   -53470   -94641  -180846  -210547 
 -128185   -23117   -26844   -72312    -7669    75468    76160    76920 
   50632   -27303   -10929    87045   118449   104607   118241   112317 
   31236   -65093  -101531  -126360  -160881  -134661   -81437   -49195 
    8168    27243   -63814  -116365   -50830   -21974   -43620    34149 
  138953   119002    82990   122044   101452    16460    29597   122151 
  163705   171006   186933   149640    62591     3958   -18658   -27971 
  -70413  -147814  -116740    23816    71293    26644    47466   118659 
  139550    99040    52203    37966    35988    45302    58134     1896 
  -55667   -13341   -25389  -182337  -311987  -293533  -156895   -34010 
  -39532   -65530    -6533     9335   -62962   -92404   -51486     1760 
   43917    92449   191847   296627   294699   193089    76211   -26957 
  -85535   -76660   -75285  -102226   -55940    52895    86121    20171 
  -28744   -20276   -66039  -199755  -257882  -141320    15921    72994 
   65726    63298    50172    16791    23070    88242    95912    35985 
   79927   150195    54143   -64027   -62724   -34033   -48816  -102644 
 -101613    12370   100796    46056   -76293   -83181    52113    69417 
  -91566  -127463      244    75607   113222   136546    59861    13717 
   85080    53232   -81174   -54058    50713    51559    69417   102030 
   51115    47858    99526    80557    88357   170537   162183    52489 
   23472    86800    54314   -81149  -137128   -96450   -34567    57087 
  121370   100730    79385   104923   138591   160241   126772    29185 
  -53440  -109350  -161119  -151941  -102168   -96167   -71321    29935 
   87167    75671   124578   162010    66095    26113   135047   136013 
   14168    38456   142104    94095    -5712    18211   104603   130510 
   81629    39166    68451    95633    51425    28836    77195    84271 
  -36453  -200788  -226883  -118490   -95957  -186125  -177824   -59228 
  -28139  -111706  -166678  -158735  -148130  -130555  -131966  -186988 
 -138662    51013    86649   -75959  -122701   -17170    25682    -4145 
   12152    74109    94361    83083   119268   127999    39225   -45218 
 -112514  -171151   -82543   104974   137494    19092     4335   123483 
  166365    98735    36887    20493    53006    49690   -51975   -74673 
   38532    56875   -30928   -23158    37491    35171    40879    43592 
  -58217  -146645   -67034    62948    83700    36616    -5869   -50572 
  -87430  -117164  -188809  -252049  -189192   -75361   -49177    11856 
  205403   245717    -9768  -133003    64783    91603  -150892  -121383 
  136462   126618    13550   109721   148794     5849   -28288    82005 
  125453    91097   115059   190593   154758     3579   -60429    10246 
   39617   -69035  -179202  -161644  -105894   -74803   -15306    45200 
  112167   213674   254537   231286   196116   106205    33984    14234 
  -65443  -108009   -39300    -6764    28738    78275   -43899  -208297 
 -179740   -88018   -62538   -14300    25838   -71658  -184185  -129824 
  -40759   -13693    98787   215194   150738    91950   183722   203745 
  104718   105696   159394   102529    55011    85975    45840   -55194 
 -130502  -247774  -349776  -297423  -211504  -184758   -77420    82943 
  134578   132142   183357   239013   174746   -39845  -165221   -13074 
  151828   114341    65168    91278    49218   -74637  -169119  -221394 
 -295608  -347186  -255256   -19158   226463   362900   365711   253642 
   72692  -106651  -246003  -288980  -139696   189869   526472   604769 
  311188   -16782   -59388   -76330  -219464  -136709   198145   362669 
  197821   -17362   -21477    13167  -112534  -154684    36738   174472 
   87439   -10192    53164   155182   167633    94903   -42910  -156559 
 -154236  -107764  -106491   -95747   -26408    42091   108097   217998 
  271085   165660    13541   -54394   -64096   -52594    -9548    41931 
   68271    40437   -43938  -100186   -55789    51133   154619   217282 
  214171   153884    96548    76848    25920   -93624  -183527  -157303 
  -23405   129476   197731   173050    74873   -57155   -96728   -27049 
   31430    76254   132054    86877   -37496   -75892   -91045  -181887 
 -192563   -63534    71688   189209   273842   212607    36488   -69165 
  -31275    47921    48060   -25011   -61787   -76196  -176077  -259000 
 -176126   -26300    40751     7465   -41851    10044   121196   137406 
  134044   219846   163311   -94762  -171899   -24797   -30242  -199554 
 -240312  -120897   -22904   -53541  -147511  -135907      269    74217 
   52591   104744   154212   -14518  -238905  -252401  -159035  -114250 
  -29531   100646   107151   -13419  -123857  -158643   -93340    22754 
   91524   107080   102567    85818    47026   -35427   -97082   -30370 
   83172    76111    46048   142919   177546     5009  -151958  -150418 
 -120593  -121972   -60748    48119    58005      909    59045   182271 
  165053    24120   -59079   -45674   -21093    21716    82703    48803 
  -40628   -27713    46406    81294    67991   -24258   -86677    56192 
  210425   136615    40249    78264    77747    38271    66610     4095 
 -188808  -226796   -55584    33498   -56444   -85631    57898   117925 
  -26594   -80311    51837    87866   -17589   -37462    64132   115773 
   81182    90415   113893    36906   -78077  -143095  -133941   -94977 
 -121884  -111977    31589    91406    24123    85140   195040    93727 
  -51629    -9275    27253  -121647  -286944  -332176  -332213  -333799 
 -267634   -83554   106940   155041   138603   189083   215870   133891 
   75243   140031   196652   158799   148613   169918    95172   -11072 
  -18890   -25485  -150372  -217001  -109677   -80339  -215620  -256897 
  -89135   123013   167718   125874   271348   403141   148472  -158517 
 -141543  -132056  -260876  -142033   169006   189448   -86224  -191512 
  -46599   -21249  -125854   -66347   134259   289703   330596   254060 
  101926   -92588  -234432  -137414   150916   325275   285185   173996 
   70195   -15073  -104716  -188766  -137668    25300   101532    90568 
  144106   246140   196459   -62571  -290695  -318264  -220708  -100845 
  -44324   -29633    68755   145540    15032  -158388  -150339   -64448 
  -22899    63637   193566   251997   287606   307629   117573  -223226 
 -375189  -269185   -28023   336215   609545   410826   -89649  -275773 
 -128592  -129970  -223656  -123775     7458    57063    99937    62142 
  -19164    27956   182298   302220   296462   179986    79032    57738 
   23932   -73873  -138648  -126215  -107264   -78444    -3236    67055 
   68351   -26906  -120351   -48451    87701   113155   171158   347145 
  424977   271029   -51543  -337046  -365283  -218666  -115508   -52103 
   37686    37017  -175375  -404218  -400503  -274974  -132849   118051 
  368124   444072   381246   203834   -81536  -319477  -399527  -331606 
  -46389   384959   565585   274562  -212637  -500708  -510601  -369740 
  -97009   220749   374686   351601   195065   -64004  -234903  -222663 
  -39592   292817   477022   314518   103904    16456  -108396  -221501 
 -185150  -113712   -85132   -29181   -10325  -105229  -162262   -66652 
   35419     3588   -80554   -86917    -8612    75032    84363    48598 
   78912   149697   151615   135296   181907   206124   123904    -5459 
 -113672  -207222  -248890  -148508    37196   117629    48058    -4731 
   92960   225143   184665    68536   124325   214618    69536  -144503 
 -137689      386     6491  -128908  -186562   -90826    33089   101639 
  101644    72347   104352   158763    98542   -38269  -107819  -120620 
 -162249  -222540  -261843  -239247   -98067    89016   163038   136087 
  113537    42806  -139402  -273291  -185180    23881   112102    49098 
   36320   143992   193689    52832  -159098  -185727    18767   161398 
   54626   -63003     8344    53429   -75634  -152239   -31929   119114 
  153426   118021    53289   -44509   -80609   -24858     3298   -13255 
   31304   121211   112115    15573   -17963   -33704  -156394  -292920 
 -298082  -189062   -90236   -58075    13377   175550   282328   221202 
   38277   -93561    -8705   135387    74207   -32746    58912   150593 
    2264  -195685  -168567   -13799    49035    70248   156060   215959 
  156021    24207   -90702  -139214   -94455    25895   105739    76150 
   55042    93587    38273  -107350  -123989     8553   109127   116248 
  113656   157930   145724   -32496  -230900  -245192  -109707    33633 
  166406   323724   413128   363749   278694   188379     7766  -167745 
 -150961       62    79412    19273   -98727  -181435  -270474  -419831 
 -455734  -273905   -74165    40374   154379   210030   121990    11775 
  -20201   -58621  -138354  -151030   -83037   -29735    15010    67453 
   89615   109441   107776    76172   114754   113641   -64312  -193123 
 -153951  -121574  -108014   -32603    66741   136490   166736   206848 
  232158   105170  -148847  -305040  -205125    63804   232007   122869 
 -139992  -218973   -11361   153092   120763   107393   102128   -46759 
 -222514  -272546  -174893    20131   143872    97327    24792    -8318 
 -151714  -315257  -211746    41287   137722   169057   282902   281438 
   89077   -17109    51221    75527    43844   109128   156607    67552 
   24231    77754    31923   -85009   -67543    47818    89464    60711 
   10896  -100594  -200759  -166755   -94797   -91978   -43366   121855 
  240825   169543    51184   105608   214675   145960    62948   168629 
  203663     8566  -104689   -15339    34094   -16585    -6254    66984 
   15729  -148937  -186471  -105607   -96257  -134145  -135451   -75236 
   46233    95698    36313    53605   149830   134900    69847   121947 
  151117     5249  -156269  -212251  -248801  -278621  -210051   -54694 
   73392   118819   119942   117968   136614   206206   245524   102852 
 -111555  -168457  -160402  -240862  -277541  -181454   -89891   -64654 
   18842   208061   322832   275032   262564   345769   290110    52692 
 -127446  -172035  -177664  -137532   -34477    61591   120107   148721 
  147910    96714   -33314  -136749   -79456    35229    60529    62327 
  120242   125473   -71099  -358134  -424616  -225897    -5398   114079 
  135082    27273  -152331  -228216  -178344  -180874  -228542  -157431 
  -11110   124021   274100   384379   369989   241906    48719  -139670 
 -246387  -189909   129532   568826   699724   379067   -76067  -357821 
 -428900  -381582  -183289   210094   548054   551578   261988   -96766 
 -332465  -439306  -468706  -309916    17858   241897   167075  -141340 
 -306213   -84819   178453   232666   291738   341911   182101   -38018 
  -99529   -78114   -89135   -86606   -56119   -37166    14235   112423 
  164640   107882    21726    -3472   -31426   -98352  -109008   -38502 
   56224   134368   128815    33492   -20553   -21376   -87858  -116778 
   12516    92099    18488    39601   212179   244459    69249   -14696 
   86130   118048   -24239  -152302  -104879    47991   101940    -7918 
  -97198    -9861   132803   185889   218380   232554   118066   -29503 
  -74402   -67374   -15437   144482   325714   292722   -55163  -402938 
 -385012  -126256    94415   257552   369442   361543   167194  -208633 
 -512177  -489244  -173021   288280   609444   495167    95935  -185984 
 -256891  -269828  -186705    62081   240953   221607   152199    72318 
    1779    21155    64348    92608   154043   120361   -76184  -213255 
 -194184  -148223  -115710   -57070    40045   133945   130677    33315 
  -16246    40326   108280   137581   171479   220866   234377   178446 
   70351   -50998   -97293   -41853   -41421  -138840  -135193    13739 
  106517    45210   -20786    56647   148426    93555    22155    22468 
  -21451   -88156  -102903  -141034  -199184  -133014    53963   187793 
  217672   181557    26547  -201098  -325138  -281178  -107612   111819 
  228878   129503  -130584  -307845  -249861   -90928    90640   350823 
  497142   321660    19257   -93607    37742   209258   240565   130838 
  -72488  -266677  -378149  -504636  -584865  -368355    70679   405754 
  583172   706576   610452   173708  -240252  -282323   -99805   107518 
  318432   324493   -59933  -482808  -474289  -170107    45231   161504 
  244136   193196    48659   -27878   -40426  -108477  -171364   -83261 
   53398    89859   103366   178382   248387   198758    -8348  -262205 
 -383292  -340301  -285934  -239887   -12715   386059   663459   624643 
  367209    85654  -181172  -429213  -532906  -393179    39037   655540 
 1009322   781613   256012  -114368  -319011  -619953 -1001809 -1200962 
-1124596  -831017  -313572   387433  1085200  1525986  1557735  1358167 
 1129929   641515  -124201  -679666 -1081001 -1602708 -1862228 -1686274 
-1185603   -78255  1618605  2975690  2835829  1374055     9211  -847811 
-1674615 -2160280 -2059424 -1781923 -1249697   -49646  1570897  2664629 
 2555085  1659046   581213  -489004 -1155142 -1443810 -1719795 -1665360 
-1145456  -342281   847468  1936685  2121419  1415954   275918  -867132 
-1600553 -1819058 -1593825  -955811   -32899  1035566  1934814  2170869 
 1632138   630688  -358273 -1011940 -1532338 -2028254 -2012319 -1297754 
 -152040  1322163  2525990  2525764  1500402   259348  -699634 -1050251 
-1070427 -1245156 -1306754  -934228  -260456   521945  1132697  1316660 
 1055254   436222  -266425  -689323  -815773  -751399  -397693   133279 
  528669   706771   602816   145464  -382350  -609898  -507892  -303048 
 -171953   -78696    39694    64129   -42461   -92693   -33915    14657 
   37057    70007    83589    85597   119301   125286    48303   -40851 
  -75108   -34493    68561   137428   133730   172189   281192   315074 
  187503   -37240  -248172  -338311  -239156     1864   256371   430013 
  465696   328196    62650  -208969  -425754  -630991  -777174  -694666 
 -342339   104150   441051   590537   544961   360601   206063   159286 
  103849   -30207  -170174  -243211  -236933  -165134   -39940    95480 
  164710   207918   331129   428970   339271   165198    43709   -85035 
 -210826  -208301  -128166   -73927    35016   234643   390011   380027 
  192071    -9353   -22238    64205    52307    29288   138467   233868 
  138511   -36480  -106770  -108955  -161753  -236025  -221252   -98480 
   21910    66664   103119   124413    22985  -133483  -205748  -205533 
 -154867   -62560     -193    27822    43188    -6831   -89675   -94471 
  -18095    81673   169448   205575   166639    73634   -25986   -95373 
  -98967    -1488   152520   247931   214431    98933   -23745  -199888 
 -443554  -584101  -484186  -132246   415974   948767  1205800  1109466 
  694929    66751  -489368  -751661  -782965  -637970  -246954   309281 
  733244   760536   375409  -219603  -685774  -720865  -397672   -17858 
  318659   568312   543054   186115  -247238  -449636  -385027  -190666 
   70950   306837   338651   123447  -182084  -340485  -260705   -66515 
  143931   273653   201847    70202    56955    50512     7562    29234 
   22073  -109310  -228896  -231182  -197215  -194508  -163722   -68763 
   39694   106094    98378    39290   -10301   -41227   -70523   -70704 
  -18693    61111   141858   207901   239843   231049   178767    75225 
  -49956  -145794  -208336  -241120  -198566   -76235    44125   124545 
  189618   208648   136122      149  -140129  -256831  -346681  -345004 
 -167122    85723   197966   136671    54827    54993    92412   111623 
  125408    79240   -93590  -278425  -335538  -291912  -233325  -218520 
 -251548  -231216   -82273   113770   229624   225381   173153   161421 
  164374   106213    -9899  -103642   -84933    40169   148146   132068 
   13189   -83376   -73349     -544    53174    53591    16845    -8336 
    9957    59077   114401   139906    69224   -95568  -214901  -183600 
  -85181   -39582     1327   113788   201010   176190   118337   102074 
   99536    77068    65494    73930    44792   -14977   -42637   -33161 
   -1765    37011    52936    48913    47776    47176    52572    66333 
   46809    10917    42460    85585    16114   -91904  -101835   -62183 
  -79779  -135114  -141709   -79617    -5722    55248   143404   254255 
  313868   281022   177572    37743  -117461  -244256  -256488  -118345 
   93810   264183   296246   156216   -37309  -110777   -77391   -51486 
  -26871    30050    74924    65088    23217    16021    56652    86030 
   88135   120369   202861   247919   159851    -1550   -71078   -22835 
   26042    38850    39323    11928   -21634   -37171   -57387   -45168 
   36316    94750    65085    38305    63780    62919    23593   -11683 
  -78167  -152629  -134238   -54262    -9720     5606    43286   115959 
  173009   147947    43640   -67392   -90493   -29684   -21800   -92822 
  -89321    16628    54302   -22893   -64477   -34427   -40008   -78569 
  -89458   -99392  -119171  -121051  -133324  -158115  -131316   -83475 
  -91467   -85875     3290    86603    88588    44151    15778    30358 
   33750   -30704  -116039  -150148  -119641   -53698    -6719    -9149 
  -24575   -13163    -5185   -50095  -104832   -56170    94418   176310 
   84273   -55335   -86222   -51957   -52540   -52967   -26931   -18116 
   29190   132423   119063   -33576   -95396   -19717    -1401   -81233 
  -97350    11816   108172   102957    86518    98986    75688     9053 
  -83689  -171460  -163551   -35853    96340   121125    86483   102401 
  124630    48151   -74053  -114744   -71028   -43735   -54503   -19822 
   62415    83392    22645   -16428    10371    48106    66607    87344 
  117210   122214    82404    25753   -25280   -47737   -16994    24131 
   47918   106447   199386   247418   194637    66203   -34655   -40208 
    1869    15064   -11699   -13968    31041    23094   -52157   -62049 
   -6079    15732    24754    45976    34518    12854    23852    39477 
   21839   -33845   -78607   -44483    49898   103469    53499   -18327 
   25385   150798   187778    86561   -20894   -20129    19300     6459 
   14041    71712    74831    26099    15328    24922    -7437   -31636 
   42904   132827   104449    62669   141549   218148   154109    26493 
  -26053    20577    74087    47684   -26426   -58224   -30193    12282 
   50739   107205   168383   178635   131948    54843   -58744  -201881 
 -308483  -266177   -21755   275224   366577   187032   -60570  -199629 
 -252439  -224146   -49196   181576   298929   279704   174841     1299 
 -219229  -397590  -410870  -248491     5840   269089   403034   309403 
   72243  -148877  -256322  -271626  -256581  -187425   -69019    -1779 
   -1918   -10390   -46101  -126093  -193321  -222544  -202059   -83414 
