Origin Time       2011/03/11 14:46:00
Lat.              38.103
Long.             142.860
Depth. (km)       24
Mag.              9.0
Station Code      MYG004
Station Lat.      38.7292
Station Long.     141.0217
Station Height(m) 40
Record Time       2011/03/11 14:46:51
Sampling Freq(Hz) 100Hz
Duration Time(s)  300
Dir.              N-S
Scale Factor      3920(gal)/6182761
Max. Acc. (gal)   2699.886
Last Correction   2011/03/11 14:46:36
Memo.             
[...]
   73781   127810   161983   127068    10435  -109438  -169955  -213342 
 -265824  -293578  -287575  -245473  -185575  -160638  -151571  -103466 
  -39749     3746    40113    69924    62452    13404   -34663   -45199 
  -31412   -36082   -55637   -28587    47055    96110    92622    85670 
  103422   110796    82609    49031    32694    21052    30663    84758 
  105969    35940   -27990   -59777  -146640  -237962  -249567  -207740 
 -136427   -56309    13742    84579   117958    80842    41704    58461 
   87740    66944    -6053   -66852   -58052   -23403   -27059   -55802 
  -93272  -119900  -100420   -72119   -86808  -124237  -144532  -136413 
 -118422  -100753   -63324    -3491    51867    77442    44145   -51797 
 -141730  -172766  -180595  -188263  -184745  -179221  -138435   -28221 
   83720   135967   164310   205157   233770   231836   215470   167221 
   61090   -54781  -134703  -201935  -247803  -233477  -182525  -118450 
  -35824    32346    61087    50543   -20243  -114491  -145226  -112777 
  -61259    -6955    15725     2819     4783    31362    43888    27240 
   30003    94341   152504   131227    74556    43539    39297    22233 
  -50791  -141611  -183731  -190028  -174023  -142606  -136093  -114607 
  -24096    69406   119171   155436   165384   118815    35400   -52051 
 -121744  -168199  -197898  -192796  -140017   -80557   -46422   -20425 
    3049    11593     5559   -16744   -43905   -46973   -31990   -34655 
  -66174  -103866  -112188   -70427   -12113    -7294   -69666  -138352 
 -176676  -222505  -283974  -283073  -198782   -96236    -1850    81441 
  150703   224783   282778   276177   207453   124013    60734   -10613 
 -116290  -211566  -285001  -329884  -258307  -101556   -12430    21448 
  102725   177659   150001    59810   -16490   -57265   -66187   -90694 
 -134339   -97632     9023    55767    39065    37010    56630    73771 
   62113    -8755  -110247  -160392  -147208  -148638  -189724  -210381 
 -179489  -112891   -31571    40650    97523   125393    84902     1754 
  -45512   -55928   -70694   -76075   -67901   -69837   -50846     2446 
   22617     -944    -5682    -2872   -36168   -55044    -2941    82014 
  158154   220164   218954   105790   -39272   -83863   -47004   -29035 
  -11059    50543    99188    80845     7256  -102472  -247144  -384104 
 -429150  -359753  -237852  -120820     -817   132813   247011   321926 
  332674   250960   124186     -140  -146425  -326735  -502163  -602255 
 -558216  -363601   -94735   112148   207637   310632   443717   486417 
  421683   271150    67842   -67995  -119474  -191158  -291192  -353599 
 -354064  -271622  -119212    12451    78251   113337   140583   149557 
  109073    22481   -37165   -54789   -81979  -116388  -151535  -166557 
 -110974   -20489    55437   121703   177492   249123   354860   413443 
  319485   120438    -8960   -39887   -96526  -194467  -263645  -271923 
 -185779   -31579    62977    37850   -36733  -110802  -202793  -293277 
 -328352  -302138  -221328   -89085    43983   128484   165429   188025 
  204652   156202    58407     6590   -26493   -50786    17183   101833 
   88476    39180    18713   -16308  -103834  -205874  -272018  -305812 
 -307720  -246977  -149844   -80674   -18445    90844   205367   256285 
  255819   235615   163621    20030  -134550  -267496  -387776  -459432 
 -466778  -415672  -283684  -104416    66015   218747   288470   223446 
  135579    85642    -9580  -147074  -286858  -416321  -436801  -325089 
 -213059  -148090   -60988    61944   165119   212861   207466   143630 
   22286   -92092  -150956  -172588  -138166   -49944     8758    32921 
   64934    75414    84000   159657   247149   240357   165646   100100 
   39207   -29803   -94075  -170112  -259328  -332650  -381665  -403943 
 -381928  -299065  -170592   -31649   124601   318806   513905   639672 
  652117   564040   427419   266846    62374  -222053  -605746  -967885 
-1115856 -1124048 -1153042 -1033499  -653389  -224370   231145   821475 
 1254097  1277068  1193934  1077984   631289   182603    78341  -104852 
 -498872  -747958  -838063  -842689  -653704  -389436  -302614  -315120 
 -218751  -110212   -64326    81164   291436   396384   381717   284326 
  198412   211600   234986   172181    56336   -65147  -154344  -192851 
 -258009  -428655  -643858  -745717  -618030  -307820   -17826   159518 
  365024   613261   728023   698671   575239   335868    92717   -58916 
 -200555  -361973  -503414  -626582  -692320  -653463  -534780  -382155 
 -219769   -13910   252392   472160   559800   576460   597692   580537 
  414326   135096   -87512  -268160  -505767  -705752  -782763  -723821 
 -491004  -208240   -13366   223365   556806   726404   593509   345982 
  157709    39005   -86627  -285850  -489165  -592591  -573218  -422034 
 -200607    -9323   170567   348345   429264   382639   262884   132983 
   66949    42773   -66949  -248981  -372232  -435869  -457950  -351838 
 -163172   -43032    74238   301148   510531   583601   492542   191786 
 -148637  -332615  -505888  -709579  -715308  -540474  -354338  -164548 
   39473   262661   494457   578155   434834   228248    84891   -15790 
 -140125  -356852  -632911  -851387  -896311  -701514  -384570  -171059 
  -71435    99025   330459   498036   629601   670286   562734   460321 
  381198   229442    76973   -39557  -167447  -225982  -135960     7470 
   63561    -5470  -112249  -167769  -186756  -170386   -94501   -10186 
   59082   144511   225262   272009   282540   223821    90213   -46080 
 -169934  -325080  -453789  -492432  -478591  -416280  -305360  -209301 
 -125095    -4948   162564   371233   535043   556135   460508   286042 
   74105   -59785  -140919  -275627  -358041  -282859  -128863    12593 
  107507   207500   331305   347412   211798    65737    28483    77555 
   99454    67605    61879    68311    30311   -22095  -103013  -237115 
 -322634  -283939  -166705   -29109    83197   156266   231016   280255 
  207650    28938  -159616  -327086  -435603  -413938  -317785  -260965 
 -228122  -174614  -134303  -127934  -135582  -157853  -198066  -228033 
 -223545  -191268  -151978   -98083     5726   144562   259769   340522 
  398348   369565   176328   -86510  -266592  -446614  -691041  -801543 
 -714117  -507961  -163855   189411   467674   780548   928051   765103 
  592149   422346   107467  -127673  -263691  -511436  -789755  -972675 
-1061281 -1045885  -913982  -673913  -368263    19859   526857   975965 
 1153627  1130223  1009169   761386   519699   380083   177031  -119421 
 -424864  -805198 -1239442 -1481184 -1355341 -1037566  -780199  -551185 
 -269919    49724   430059   826283  1116884  1243811  1208056   997312 
  657264   385670   215347   -83903  -528381  -992175 -1438776 -1638291 
-1418520 -1009971  -599119  -131876   388347   799245   918488   876262 
  930762   870676   510358   186835    35199  -119356  -231608  -229585 
 -152737    10311   187692   261598   244999   183995   109842    53794 
  -14033  -133835  -255629  -277002  -154175    55005   275101   498025 
  678926   700635   560886   380249   210663    16039  -201867  -428187 
 -695342  -966626 -1127443 -1121307  -978015  -734922  -395039   -12413 
  386283   848418  1227449  1357529  1348564  1218132   840034   366551 
   -3835  -417637  -965463 -1403227 -1566869 -1464042 -1134320  -769295 
 -488243   -92128   600997  1310513  1530613  1327861  1102284   812214 
  424237    80695  -375076  -958285 -1384405 -1514648 -1287214  -815796 
 -487425  -375389  -178353   106962   286723   381504   371753   215191 
   43763   -79069  -139744   -66358    75304   176504   261542   349995 
  400812   352475   164797   -69610  -227465  -330424  -411003  -447810 
 -488332  -535643  -467870  -240618    22467   194635   279429   307470 
  258831   146052     9223  -114367  -225001  -377830  -520988  -525287 
 -410477  -278461  -187055  -167584  -166447   -92341    23100    99779 
  146419   207349   285617   356592   431333   546451   672195   710574 
  585386   345606   142551    10001  -150381  -335251  -485868  -633015 
 -790989  -921431  -991775  -947425  -735704  -380361    21839   393291 
  673536   786527   786570   784193   718353   489403   146420  -152917 
 -359376  -607320  -911908 -1108350 -1085574  -858014  -565176  -303308 
  -13679   290426   498312   601771   615254   482988   232348   -19034 
 -222657  -413066  -593499  -710280  -751437  -696947  -481992  -189128 
   28349   237108   544442   814303   942544   981688   871700   650326 
  568790   585205   426543   128058  -118943  -325919  -550952  -751470 
 -870829  -858600  -706152  -463742  -216808   -83743   -33238    96250 
  265872   307186   201161    40852   -87741  -122167   -73041   -39580 
  -43748   -16149    39122   102314   189498   289982   383472   414716 
  329427   166058     -236   -99804  -106238   -83913   -47820    65369 
  233962   392626   518541   584802   589786   564590   482486   314048 
  130869   -20145  -189365  -349658  -431495  -486779  -527781  -468658 
 -316334  -125742    99355   345901   588615   828703  1010298   965216 
  679144   396193   210079    21655  -148122  -269938  -363152  -367255 
 -283843  -183742   -69650    30479    60434    48370    43920    58697 
   80044    74593    34495      605    13106    29957   -18029   -72232 
  -59083   -23378    -8919   -34501  -105557  -194725  -323444  -525761 
 -774571  -992761 -1040377  -813319  -404110    -4783   390413   850489 
 1115602   968257   617721   250072  -104537  -383425  -624205  -840373 
 -892724  -769485  -638952  -551812  -355794     8669   336691   471975 
  512031   532062   488095   335892    48586  -236617  -349638  -324677 
 -163155    88754   188020   107963    -3668  -159091  -351601  -488606 
 -533549  -503722  -448963  -375059  -264010  -141677     5120   166402 
  261545   286385   277776   208611    49171  -174122  -394105  -570010 
 -686379  -692083  -604381  -524920  -431762  -245156   -41378   105425 
  262964   413709   451542   394156   253624    29083  -118397  -138795 
 -167320  -176639  -100370   -24852   -11580   -77325  -189830  -243589 
 -234160  -231564  -217395  -150761   -39082    94713   235571   399136 
  570778   663434   622405   472180   260789    36400  -169065  -381736 
 -628337  -814957  -800183  -572980  -269730   -26869   179996   415823 
  576972   613892   642126   642693   584091   594753   627443   516314 
  339089   237942   169704    75161    -2276   -79225  -234829  -420382 
 -542879  -626396  -696417  -677828  -508729  -273342   -83467   128132 
  435045   710646   820979   732886   478472   207884    16247  -193228 
 -482522  -796826 -1046102 -1093533  -924171  -673723  -350438    75531 
  511041   883997  1123313  1202888  1216949  1140970   896053   589751 
  340420   125120  -132955  -506091 -1033171 -1601048 -1914266 -1796877 
-1359832  -840638  -460162   -90507   619803  1435216  1819955  1804295 
 1588247  1127870   579946   186159  -250220  -892852 -1380240 -1474610 
-1314919  -947672  -505029  -246551    40076   655299  1235347  1345468 
 1065829   673010   306286   -85010  -482762  -786378  -934053  -829607 
 -578409  -411221  -346177  -302590  -240712  -196289  -190400  -167258 
 -104772      776   121214   178165   116725   -46396  -182368  -206950 
 -185128  -141864   -48309    78138   214543   313743   333829   313438 
  308039   298901   200142     8543  -184852  -374680  -568969  -684913 
 -697241  -628463  -446085  -179963    91701   405685   756845   984969 
 1033806   937215   651538   274436    -8784  -274362  -608983  -840032 
 -854417  -652462  -229857   249667   676331  1133118  1397316  1165623 
  730541   449436   160111  -236656  -596820  -965997 -1330277 -1459485 
-1303015  -999011  -672624  -313826   227889   837477  1101376  1019423 
  943720   812732   532024   323439    49211  -430796  -797877  -931957 
 -897322  -672002  -346530   -57555   150303   326095   467542   524959 
  555227   529709   331129    49287  -162667  -355117  -593683  -778646 
 -854703  -864773  -767453  -534158  -310535  -207917  -109220    60151 
  211736   337266   428422   397873   255700    88788     4052    31033 
   50889    30350    43408    68128    50741     8596     9607    92091 
  209467   326464   457775   581807   587728   360324    -1215  -317534 
 -675101 -1140973 -1493528 -1586703 -1403016  -941577  -397502    77934 
  602835  1121151  1339493  1279477  1119138   748568   179997  -340722 
 -803280 -1181966 -1217258  -905912  -479543   -32697   379603   766308 
 1196688  1509058  1520030  1280767   925417   656023   523572   249123 
 -281368  -896748 -1496516 -1871389 -1717293 -1120528  -488754    -6472 
  525040  1110729  1343160  1169198   983207   818904   422777   -63607 
 -365864  -605448  -821550  -800557  -649742  -584949  -640148  -805819 
 -931079  -875908  -653781  -348217   -57816   237129   530300   707918 
  797624   865937   787414   483089   137265  -154871  -586141 -1178830 
-1699135 -2046623 -2177965 -2034705 -1712960 -1302041  -835041  -362224 
  278685  1131288  1716563  1948462  2279347  2429294  1987365  1533721 
 1485239  1481362  1316350  1050281   665933   144768  -437687  -872506 
-1181736 -1866633 -3054175 -3926923 -3845077 -3195883 -2525711 -1928315 
-1488896 -1420767 -1373857  -165959  2377324  4030060  3600504  3422159 
 4086436  3005940   987109   707962  1184722  1260178  1445636   476949 
-2295988 -4121917 -3544147 -2723776 -2966918 -2819363 -1535052  -680805 
-1041902 -1373440 -1094254  -248558  1545432  3064255  3208051  3546921 
 4226089  3174862   972182   201621   905717   843368  -445012 -1708077 
-2504221 -2553716 -2483187 -3540201 -4146109 -2401153  -381888  -606565 
-1676866 -1532358  -391474  1314383  2419652  1885274  1479657  2083912 
 2514150  2521331  1928804  1006261   916065  1216681   692659  -408073 
-1253528 -1614960 -1672654 -1694153 -1649023 -1215336  -693441  -536937 
 -295673   348436   986400  1356347  1492436  1456997  1332741  1087784 
  606660   140455    27396   -12052  -197404  -269789  -261515  -298894 
 -269210  -211140  -185370  -166691  -197432  -235634  -185996   -53818 
  106356   198194   163658    96822    91649   123946   171714   226611 
  209226    85854   -59156  -144779  -136649   -52560    21852    33162 
    4867   -42792   -89188  -123546  -177839  -240296  -284231  -326353 
 -336284  -269733  -184374  -190750  -279576  -301995  -191104    -9654 
  197082   340045   293516   121213   -13205  -102784  -191749  -228220 
 -198297  -160138  -107435   -10822    89052   167877   275079   399199 
  398225   220002    19496  -133459  -338727  -571105  -741499  -872971 
 -944163  -920257  -843504  -680753  -410746  -166386    11979   227545 
  446675   586027   704688   863214  1021186  1081563   958743   663665 
  338535   110549   -79174  -291320  -422651  -393530  -243162   -67712 
   61781   168808   301479   467746   626179   680886   572336   346604 
   88760  -169717  -444217  -709811  -913173 -1060909 -1189703 -1264741 
-1154594  -802840  -397648   -98000   227055   673155  1115358  1457101 
 1652741  1644964  1438422  1074787   626563   115448  -542876 -1223015 
-1625532 -1814215 -2017649 -2058074 -1729321 -1268235  -944417  -651248 
  -48031   898594  1596975  1626149  1363122  1242835  1187828   897272 
  366362   -49270  -345153  -782948 -1132845 -1123141  -873626  -505393 
 -149245   109210   357035   471756   317281   134217    45758   -54140 
 -109197  -120324  -242557  -425360  -470524  -335659  -116259    37194 
   70936   130124   222314   225657   199667   163592    43926   -94679 
 -194747  -297221  -397457  -476815  -574752  -702271  -777127  -670623 
 -388238  -153759   -74627    18287   193253   357999   525106   732033 
  950612  1136198  1194308  1046785   757698   523496   445614   379830 
  197174  -105575  -536468  -966992 -1204216 -1228794 -1069803  -800103 
 -580508  -459287  -357235  -212130   -61415     6936    13621    48009 
  127621   236533   354587   437875   479576   498006   469813   375763 
  231087    56951  -118214  -291759  -474583  -619802  -701464  -792322 
 -919972  -952621  -755684  -422599  -178453   -23579   210371   477570 
  622997   643840   559447   352363    66507  -181866  -294580  -329717 
 -385264  -430515  -440767  -459767  -483576  -443403  -283670   -46802 
  152591   266380   323621   328820   296148   272188   264920   293928 
  381650   454500   419396   276234   120875    39461    -7596   -85510 
 -177099  -258837  -320348  -363984  -430198  -524035  -600955  -617314 
 -522580  -319766  -125806    -9571   111682   265699   392541   511459 
  604501   581353   471792   353167   212747    39997  -114702  -237737 
 -386133  -580113  -776456  -936724 -1022705  -982315  -813143  -609874 
 -465819  -328916   -79159   268297   569514   699103   628001   442818 
  278128   196959   149215    55993   -68279  -167595  -241670  -284620 
 -265151  -188751   -88709     8996    56023    -5144  -114937  -142981 
 -100756   -90908  -121546  -154414  -187430  -213796  -227037  -244330 
 -269383  -274434  -237036  -169266   -86641    21768   166112   322637 
  444936   506586   524607   522710   481698   387658   294228   248457 
  223688   181120   117444    46520    -7803   -28951   -27455   -12120 
   15911    36547    27605    -8333   -50809   -92446  -147034  -189854 
 -158991   -70081    -4546    16106    26748    43967    48418    14536 
  -58882  -145433  -193994  -166210   -79032    18266    92796   167217 
  278240   398959   489245   531038   466218   268876    53881   -65881 
 -141019  -253067  -376809  -451584  -423891  -272565   -80167    48697 
  113131   142478   130938   101775    51163   -70337  -211194  -265561 
 -202975   -60400    79340   173184   257067   350153   428200   431049 
  308783   133287    11634   -86977  -227719  -381122  -547512  -758443 
 -928463  -940655  -790309  -566635  -372182  -233396  -106382     9977 
   82677   137004   197525   245052   284468   298252   207304    18399 
 -130354  -183133  -228818  -290345  -315505  -286604  -166066    29885 
  203542   339201   446459   508457   556529   587411   568194   502696 
  387900   253442   136179    -1924  -185883  -373464  -488047  -446807 
 -257348   -42458   106502   228273   381247   514209   548497   473662 
  307174   108467   -26484  -102760  -204452  -321319  -407809  -480508 
 -518547  -482711  -404901  -333050  -262163  -148857      840   123377 
  196860   250145   292567   294963   244698   166140    62173   -73207 
 -210307  -329809  -421576  -431756  -334523  -202991  -120608  -105776 
 -137351  -193323  -279126  -394670  -488294  -496283  -394299  -239583 
 -131000   -53322    90265   305111   523071   689658   760394   664924 
  389361   117682   -19104  -197186  -507971  -788643  -970366 -1032388 
 -882919  -581819  -311637   -57296   351936   827894  1080170  1058766 
  903681   668855   407830   214363    20428  -271229  -564349  -779699 
 -934638 -1002023  -952453  -769552  -476718  -182510    88882   390473 
  639658   740808   754569   766785   749424   608702   369873   144084 
  -69681  -318149  -584948  -825035  -961582  -900905  -651488  -368392 
 -166665    20291   282379   565579   750399   778566   653850   419330 
  171664   -14319  -183881  -399011  -624044  -795209  -854692  -732321 
 -432021  -116237    74374   257382   529402   720289   752024   717055 
  605161   380017   131744   -46072  -232119  -485376  -668605  -724457 
